ONEWEB-0621             
1 55162U 23004Y   25354.17312220  .00000535  00000+0  14724-2 0  9997
2 55162  87.8857  56.7017 0001929 107.6733 252.4605 13.11415846142340
ONEWEB-0622             
1 55163U 23004Z   25354.10191146  .00000475  00000+0  13046-2 0  9992
2 55163  87.8849  56.7241 0001586 129.4509 230.6760 13.11416565142320
ONEWEB-0623             
1 55164U 23004AA  25354.11254350  .00000054  00000+0  10520-3 0  9999
2 55164  87.9099  41.4902 0002047 119.2427 240.8909 13.17647557144001
ONEWEB-0624             
1 55165U 23004AB  25354.10329883  .00000027  00000+0  39200-4 0  9990
2 55165  87.8926  26.1930 0001829 105.2959 254.8372 13.12921657144575
ONEWEB-0625             
1 55166U 23004AC  25354.10241464  .00000045  00000+0  82916-4 0  9991
2 55166  87.9101  41.4873 0001936  94.9424 265.1929 13.17648448143995
ONEWEB-0626             
1 55167U 23004AD  25354.16822299  .00000048  00000+0  89225-4 0  9992
2 55167  87.9101  41.4743 0001366  88.6510 271.4778 13.17650652144000
ONEWEB-0627             
1 55168U 23004AE  25354.08048644  .00000046  00000+0  84240-4 0  9998
2 55168  87.9099  41.4920 0001861 116.7354 243.3968 13.17648237143995
ONEWEB-0628             
1 55169U 23004AF  25354.17131330  .00000364  00000+0  97943-3 0  9990
2 55169  87.8934  26.2088 0002162 114.2436 245.8919 13.12313682144552
ONEWEB-0629             
1 55170U 23004AG  25353.90413405 -.00000008  00000+0 -53468-4 0  9990
2 55170  87.9099  41.5244 0002166 101.5192 258.6183 13.17649326143975
ONEWEB-0631             
1 55171U 23004AH  25354.10846800 -.00000018  00000+0 -79316-4 0  9994
2 55171  87.9178  10.9969 0001212  94.5964 265.5306 13.18686884146076
ONEWEB-0709             
1 55172U 23004AJ  25354.13580194 -.00000449  00000+0 -13021-2 0  9996
2 55172  87.8850  56.7409 0001139  76.6796 283.4459 13.11415262142406
ONEWEB-0710             
1 55173U 23004AK  25353.15912566  .00000038  00000+0  65710-4 0  9996
2 55173  87.9103  41.6672 0001760 104.9802 255.1525 13.17648303143879
ONEWEB-0711             
1 55174U 23004AL  25354.18332074  .00000296  00000+0  79812-3 0  9994
2 55174  87.8860  56.7060 0001945 126.8971 233.2335 13.11416521142371
ONEWEB-0713             
1 55175U 23004AM  25353.59156110 -.00000492  00000+0 -14229-2 0  9994
2 55175  87.8855  56.8261 0001781 117.9966 242.1342 13.11416880142288
ONEWEB-0715             
1 55176U 23004AN  25353.89165867 -.00000403  00000+0 -11722-2 0  9994
2 55176  87.8853  56.7668 0001044 100.5827 259.5419 13.11413551142361
ONEWEB-0716             
1 55177U 23004AP  25354.13954240  .00000020  00000+0  17515-4 0  9995
2 55177  87.9104  41.4720 0001942  93.4511 266.6843 13.17650244144000
ONEWEB-0717             
1 55178U 23004AQ  25354.12266237 -.00000022  00000+0 -89401-4 0  9994
2 55178  87.9113  41.4469 0001711 122.9175 237.2121 13.17649842144059
