[{"OBJECT_NAME":"ONEWEB-0621","OBJECT_ID":"2023-004Y","EPOCH":"2025-12-20T04:09:17.758080","MEAN_MOTION":13.11415846,"ECCENTRICITY":0.00019299,"INCLINATION":87.8857,"RA_OF_ASC_NODE":56.7017,"ARG_OF_PERICENTER":107.6733,"MEAN_ANOMALY":252.4605,"EPHEMERIS_TYPE":0,"CLASSIFICATION_TYPE":"U","NORAD_CAT_ID":55162,"ELEMENT_SET_NO":999,"REV_AT_EPOCH":14234,"BSTAR":0.0014723875,"MEAN_MOTION_DOT":5.35e-6,"MEAN_MOTION_DDOT":0},{"OBJECT_NAME":"ONEWEB-0622","OBJECT_ID":"2023-004Z","EPOCH":"2025-12-20T02:26:45.150144","MEAN_MOTION":13.11416565,"ECCENTRICITY":0.00015866,"INCLINATION":87.8849,"RA_OF_ASC_NODE":56.7241,"ARG_OF_PERICENTER":129.4509,"MEAN_ANOMALY":230.676,"EPHEMERIS_TYPE":0,"CLASSIFICATION_TYPE":"U","NORAD_CAT_ID":55163,"ELEMENT_SET_NO":999,"REV_AT_EPOCH":14232,"BSTAR":0.0013046311,"MEAN_MOTION_DOT":4.75e-6,"MEAN_MOTION_DDOT":0},{"OBJECT_NAME":"ONEWEB-0623","OBJECT_ID":"2023-004AA","EPOCH":"2025-12-20T02:42:03.758400","MEAN_MOTION":13.17647557,"ECCENTRICITY":0.00020473,"INCLINATION":87.9099,"RA_OF_ASC_NODE":41.4902,"ARG_OF_PERICENTER":119.2427,"MEAN_ANOMALY":240.8909,"EPHEMERIS_TYPE":0,"CLASSIFICATION_TYPE":"U","NORAD_CAT_ID":55164,"ELEMENT_SET_NO":999,"REV_AT_EPOCH":14400,"BSTAR":0.0001051995,"MEAN_MOTION_DOT":5.4e-7,"MEAN_MOTION_DDOT":0},{"OBJECT_NAME":"ONEWEB-0624","OBJECT_ID":"2023-004AB","EPOCH":"2025-12-20T02:28:45.018912","MEAN_MOTION":13.12921657,"ECCENTRICITY":0.00018291,"INCLINATION":87.8926,"RA_OF_ASC_NODE":26.193,"ARG_OF_PERICENTER":105.2959,"MEAN_ANOMALY":254.8372,"EPHEMERIS_TYPE":0,"CLASSIFICATION_TYPE":"U","NORAD_CAT_ID":55165,"ELEMENT_SET_NO":999,"REV_AT_EPOCH":14457,"BSTAR":3.9200239e-5,"MEAN_MOTION_DOT":2.7e-7,"MEAN_MOTION_DDOT":0},{"OBJECT_NAME":"ONEWEB-0625","OBJECT_ID":"2023-004AC","EPOCH":"2025-12-20T02:27:28.624896","MEAN_MOTION":13.17648448,"ECCENTRICITY":0.0001936,"INCLINATION":87.9101,"RA_OF_ASC_NODE":41.4873,"ARG_OF_PERICENTER":94.9424,"MEAN_ANOMALY":265.1929,"EPHEMERIS_TYPE":0,"CLASSIFICATION_TYPE":"U","NORAD_CAT_ID":55166,"ELEMENT_SET_NO":999,"REV_AT_EPOCH":14399,"BSTAR":8.2916468e-5,"MEAN_MOTION_DOT":4.5e-7,"MEAN_MOTION_DDOT":0},{"OBJECT_NAME":"ONEWEB-0626","OBJECT_ID":"2023-004AD","EPOCH":"2025-12-20T04:02:14.466336","MEAN_MOTION":13.17650652,"ECCENTRICITY":0.0001366,"INCLINATION":87.9101,"RA_OF_ASC_NODE":41.4743,"ARG_OF_PERICENTER":88.651,"MEAN_ANOMALY":271.4778,"EPHEMERIS_TYPE":0,"CLASSIFICATION_TYPE":"U","NORAD_CAT_ID":55167,"ELEMENT_SET_NO":999,"REV_AT_EPOCH":14400,"BSTAR":8.9224887e-5,"MEAN_MOTION_DOT":4.8e-7,"MEAN_MOTION_DDOT":0},{"OBJECT_NAME":"ONEWEB-0627","OBJECT_ID":"2023-004AE","EPOCH":"2025-12-20T01:55:54.028416","MEAN_MOTION":13.17648237,"ECCENTRICITY":0.00018612,"INCLINATION":87.9099,"RA_OF_ASC_NODE":41.492,"ARG_OF_PERICENTER":116.7354,"MEAN_ANOMALY":243.3968,"EPHEMERIS_TYPE":0,"CLASSIFICATION_TYPE":"U","NORAD_CAT_ID":55168,"ELEMENT_SET_NO":999,"REV_AT_EPOCH":14399,"BSTAR":8.4239706e-5,"MEAN_MOTION_DOT":4.6e-7,"MEAN_MOTION_DDOT":0},{"OBJECT_NAME":"ONEWEB-0628","OBJECT_ID":"2023-004AF","EPOCH":"2025-12-20T04:06:41.469120","MEAN_MOTION":13.12313682,"ECCENTRICITY":0.00021629,"INCLINATION":87.8934,"RA_OF_ASC_NODE":26.2088,"ARG_OF_PERICENTER":114.2436,"MEAN_ANOMALY":245.8919,"EPHEMERIS_TYPE":0,"CLASSIFICATION_TYPE":"U","NORAD_CAT_ID":55169,"ELEMENT_SET_NO":999,"REV_AT_EPOCH":14455,"BSTAR":0.00097942966,"MEAN_MOTION_DOT":3.64e-6,"MEAN_MOTION_DDOT":0},{"OBJECT_NAME":"ONEWEB-0629","OBJECT_ID":"2023-004AG","EPOCH":"2025-12-19T21:41:57.181920","MEAN_MOTION":13.17649326,"ECCENTRICITY":0.0002166,"INCLINATION":87.9099,"RA_OF_ASC_NODE":41.5244,"ARG_OF_PERICENTER":101.5192,"MEAN_ANOMALY":258.6183,"EPHEMERIS_TYPE":0,"CLASSIFICATION_TYPE":"U","NORAD_CAT_ID":55170,"ELEMENT_SET_NO":999,"REV_AT_EPOCH":14397,"BSTAR":-5.3468e-5,"MEAN_MOTION_DOT":-8.0e-8,"MEAN_MOTION_DDOT":0},{"OBJECT_NAME":"ONEWEB-0631","OBJECT_ID":"2023-004AH","EPOCH":"2025-12-20T02:36:11.635200","MEAN_MOTION":13.18686884,"ECCENTRICITY":0.0001212,"INCLINATION":87.9178,"RA_OF_ASC_NODE":10.9969,"ARG_OF_PERICENTER":94.5964,"MEAN_ANOMALY":265.5306,"EPHEMERIS_TYPE":0,"CLASSIFICATION_TYPE":"U","NORAD_CAT_ID":55171,"ELEMENT_SET_NO":999,"REV_AT_EPOCH":14607,"BSTAR":-7.9316207e-5,"MEAN_MOTION_DOT":-1.8e-7,"MEAN_MOTION_DDOT":0},{"OBJECT_NAME":"ONEWEB-0709","OBJECT_ID":"2023-004AJ","EPOCH":"2025-12-20T03:15:33.287616","MEAN_MOTION":13.11415262,"ECCENTRICITY":0.00011395,"INCLINATION":87.885,"RA_OF_ASC_NODE":56.7409,"ARG_OF_PERICENTER":76.6796,"MEAN_ANOMALY":283.4459,"EPHEMERIS_TYPE":0,"CLASSIFICATION_TYPE":"U","NORAD_CAT_ID":55172,"ELEMENT_SET_NO":999,"REV_AT_EPOCH":14240,"BSTAR":-0.0013020546,"MEAN_MOTION_DOT":-4.49e-6,"MEAN_MOTION_DDOT":0},{"OBJECT_NAME":"ONEWEB-0710","OBJECT_ID":"2023-004AK","EPOCH":"2025-12-19T03:49:08.457024","MEAN_MOTION":13.17648303,"ECCENTRICITY":0.00017602,"INCLINATION":87.9103,"RA_OF_ASC_NODE":41.6672,"ARG_OF_PERICENTER":104.9802,"MEAN_ANOMALY":255.1525,"EPHEMERIS_TYPE":0,"CLASSIFICATION_TYPE":"U","NORAD_CAT_ID":55173,"ELEMENT_SET_NO":999,"REV_AT_EPOCH":14387,"BSTAR":6.5709774e-5,"MEAN_MOTION_DOT":3.8e-7,"MEAN_MOTION_DDOT":0},{"OBJECT_NAME":"ONEWEB-0711","OBJECT_ID":"2023-004AL","EPOCH":"2025-12-20T04:23:58.911936","MEAN_MOTION":13.11416521,"ECCENTRICITY":0.00019459,"INCLINATION":87.886,"RA_OF_ASC_NODE":56.706,"ARG_OF_PERICENTER":126.8971,"MEAN_ANOMALY":233.2335,"EPHEMERIS_TYPE":0,"CLASSIFICATION_TYPE":"U","NORAD_CAT_ID":55174,"ELEMENT_SET_NO":999,"REV_AT_EPOCH":14237,"BSTAR":0.00079812409,"MEAN_MOTION_DOT":2.96e-6,"MEAN_MOTION_DDOT":0},{"OBJECT_NAME":"ONEWEB-0713","OBJECT_ID":"2023-004AM","EPOCH":"2025-12-19T14:11:50.879040","MEAN_MOTION":13.1141688,"ECCENTRICITY":0.0001781,"INCLINATION":87.8855,"RA_OF_ASC_NODE":56.8261,"ARG_OF_PERICENTER":117.9966,"MEAN_ANOMALY":242.1342,"EPHEMERIS_TYPE":0,"CLASSIFICATION_TYPE":"U","NORAD_CAT_ID":55175,"ELEMENT_SET_NO":999,"REV_AT_EPOCH":14228,"BSTAR":-0.0014229,"MEAN_MOTION_DOT":-4.92e-6,"MEAN_MOTION_DDOT":0},{"OBJECT_NAME":"ONEWEB-0715","OBJECT_ID":"2023-004AN","EPOCH":"2025-12-19T21:23:59.309088","MEAN_MOTION":13.11413551,"ECCENTRICITY":0.0001044,"INCLINATION":87.8853,"RA_OF_ASC_NODE":56.7668,"ARG_OF_PERICENTER":100.5827,"MEAN_ANOMALY":259.5419,"EPHEMERIS_TYPE":0,"CLASSIFICATION_TYPE":"U","NORAD_CAT_ID":55176,"ELEMENT_SET_NO":999,"REV_AT_EPOCH":14236,"BSTAR":-0.0011722,"MEAN_MOTION_DOT":-4.03e-6,"MEAN_MOTION_DDOT":0},{"OBJECT_NAME":"ONEWEB-0716","OBJECT_ID":"2023-004AP","EPOCH":"2025-12-20T03:20:56.463360","MEAN_MOTION":13.17650244,"ECCENTRICITY":0.00019423,"INCLINATION":87.9104,"RA_OF_ASC_NODE":41.472,"ARG_OF_PERICENTER":93.4511,"MEAN_ANOMALY":266.6843,"EPHEMERIS_TYPE":0,"CLASSIFICATION_TYPE":"U","NORAD_CAT_ID":55177,"ELEMENT_SET_NO":999,"REV_AT_EPOCH":14400,"BSTAR":1.7515235e-5,"MEAN_MOTION_DOT":2.0e-7,"MEAN_MOTION_DDOT":0},{"OBJECT_NAME":"ONEWEB-0717","OBJECT_ID":"2023-004AQ","EPOCH":"2025-12-20T02:56:38.028768","MEAN_MOTION":13.17649842,"ECCENTRICITY":0.00017114,"INCLINATION":87.9113,"RA_OF_ASC_NODE":41.4469,"ARG_OF_PERICENTER":122.9175,"MEAN_ANOMALY":237.2121,"EPHEMERIS_TYPE":0,"CLASSIFICATION_TYPE":"U","NORAD_CAT_ID":55178,"ELEMENT_SET_NO":999,"REV_AT_EPOCH":14405,"BSTAR":-8.9400891e-5,"MEAN_MOTION_DOT":-2.2e-7,"MEAN_MOTION_DDOT":0}]
